{
  "type": "FeatureCollection",
  "features": [
    {
      "type": "Feature",
      "properties": {
        "norad_id": 66989,
        "name": "CZ-4B R/B",
        "group": "last-30-days",
        "lat": 56.413323143546016,
        "lon": -103.49946600733813,
        "alt_km": 444.37143001938966,
        "timestamp": "2025-12-24T18:55:54.778554+00:00",
        "meta_object_name": "CZ-4B R/B",
        "meta_object_id": "2025-289B",
        "meta_epoch": "2025-12-24T04:38:29.685696",
        "meta_mean_motion": 15.69990743,
        "meta_eccentricity": 0.01403574,
        "meta_inclination": 97.5233,
        "meta_ra_of_asc_node": 64.3803,
        "meta_arg_of_pericenter": 319.5361,
        "meta_mean_anomaly": 39.5527,
        "meta_ephemeris_type": 0,
        "meta_classification_type": "U",
        "meta_norad_cat_id": 66989,
        "meta_element_set_no": 999,
        "meta_rev_at_epoch": 236,
        "meta_bstar": 0.00059877785,
        "meta_mean_motion_dot": 0.00128184,
        "meta_mean_motion_ddot": 7.033709e-06,
        "tle_line1": "1 66989U 25289B   25358.19339914  .00128184  70337-5  59878-3 0  9995",
        "tle_line2": "2 66989  97.5233  64.3803 0140357 319.5361  39.5527 15.69990743  2366"
      },
      "geometry": {
        "type": "Point",
        "coordinates": [
          -103.49946600733813,
          56.413323143546016
        ]
      }
    },
    {
      "type": "Feature",
      "properties": {
        "norad_id": 66990,
        "name": "TJS-22",
        "group": "last-30-days",
        "lat": 0.7235982121580927,
        "lon": 83.99191884089606,
        "alt_km": 35800.51176006161,
        "timestamp": "2025-12-24T18:55:54.778567+00:00",
        "meta_object_name": "TJS-22",
        "meta_object_id": "2025-290A",
        "meta_epoch": "2025-12-23T08:28:30.051840",
        "meta_mean_motion": 1.00271239,
        "meta_eccentricity": 0.00034178,
        "meta_inclination": 1.9617,
        "meta_ra_of_asc_node": 285.0353,
        "meta_arg_of_pericenter": 342.904,
        "meta_mean_anomaly": 17.7811,
        "meta_ephemeris_type": 0,
        "meta_classification_type": "U",
        "meta_norad_cat_id": 66990,
        "meta_element_set_no": 999,
        "meta_rev_at_epoch": 26,
        "meta_bstar": 0,
        "meta_mean_motion_dot": 1.6e-07,
        "meta_mean_motion_ddot": 0,
        "tle_line1": "1 66990U 25290A   25357.35312560  .00000016  00000+0  00000+0 0  9990",
        "tle_line2": "2 66990   1.9617 285.0353 0003417 342.9040  17.7811  1.00271239   267"
      },
      "geometry": {
        "type": "Point",
        "coordinates": [
          83.99191884089606,
          0.7235982121580927
        ]
      }
    },
    {
      "type": "Feature",
      "properties": {
        "norad_id": 66991,
        "name": "CZ-3B R/B",
        "group": "last-30-days",
        "lat": -17.064790212432754,
        "lon": -97.60919879812744,
        "alt_km": 16045.558564145631,
        "timestamp": "2025-12-24T18:55:54.778580+00:00",
        "meta_object_name": "CZ-3B R/B",
        "meta_object_id": "2025-290B",
        "meta_epoch": "2025-12-15T17:23:33.043200",
        "meta_mean_motion": 2.38388611,
        "meta_eccentricity": 0.7240884,
        "meta_inclination": 28.4636,
        "meta_ra_of_asc_node": 300.4666,
        "meta_arg_of_pericenter": 182.7002,
        "meta_mean_anomaly": 168.625,
        "meta_ephemeris_type": 0,
        "meta_classification_type": "U",
        "meta_norad_cat_id": 66991,
        "meta_element_set_no": 999,
        "meta_rev_at_epoch": 16,
        "meta_bstar": 0.00075879,
        "meta_mean_motion_dot": 0.00057911,
        "meta_mean_motion_ddot": -2.0514e-07,
        "tle_line1": "1 66991U 25290B   25349.72468800  .00057911 -20514-6  75879-3 0  9998",
        "tle_line2": "2 66991  28.4636 300.4666 7240884 182.7002 168.6250  2.38388611   165"
      },
      "geometry": {
        "type": "Point",
        "coordinates": [
          -97.60919879812744,
          -17.064790212432754
        ]
      }
    },
    {
      "type": "Feature",
      "properties": {
        "norad_id": 66993,
        "name": "2025-292A",
        "group": "last-30-days",
        "lat": 56.47474747903717,
        "lon": 59.51720831799561,
        "alt_km": 557.3348785737935,
        "timestamp": "2025-12-24T18:55:54.778591+00:00",
        "meta_object_name": "2025-292A",
        "meta_object_id": "2025-292A",
        "meta_epoch": "2025-12-24T05:54:30.858336",
        "meta_mean_motion": 15.04577781,
        "meta_eccentricity": 0.00144786,
        "meta_inclination": 97.65,
        "meta_ra_of_asc_node": 70.6852,
        "meta_arg_of_pericenter": 230.6712,
        "meta_mean_anomaly": 129.3232,
        "meta_ephemeris_type": 0,
        "meta_classification_type": "U",
        "meta_norad_cat_id": 66993,
        "meta_element_set_no": 999,
        "meta_rev_at_epoch": 212,
        "meta_bstar": 0.0003177332,
        "meta_mean_motion_dot": 4.406e-05,
        "meta_mean_motion_ddot": 0,
        "tle_line1": "1 66993U 25292A   25358.24619049  .00004406  00000+0  31773-3 0  9998",
        "tle_line2": "2 66993  97.6500  70.6852 0014478 230.6712 129.3232 15.04577781  2127"
      },
      "geometry": {
        "type": "Point",
        "coordinates": [
          59.51720831799561,
          56.47474747903717
        ]
      }
    },
    {
      "type": "Feature",
      "properties": {
        "norad_id": 66994,
        "name": "2025-292B",
        "group": "last-30-days",
        "lat": 58.743602856498676,
        "lon": 58.42940656349284,
        "alt_km": 556.7043431604143,
        "timestamp": "2025-12-24T18:55:54.778601+00:00",
        "meta_object_name": "2025-292B",
        "meta_object_id": "2025-292B",
        "meta_epoch": "2025-12-24T05:53:54.966048",
        "meta_mean_motion": 15.04625525,
        "meta_eccentricity": 0.00142571,
        "meta_inclination": 97.6509,
        "meta_ra_of_asc_node": 70.6871,
        "meta_arg_of_pericenter": 230.9883,
        "meta_mean_anomaly": 129.0075,
        "meta_ephemeris_type": 0,
        "meta_classification_type": "U",
        "meta_norad_cat_id": 66994,
        "meta_element_set_no": 999,
        "meta_rev_at_epoch": 212,
        "meta_bstar": 0.00036226785,
        "meta_mean_motion_dot": 5.039e-05,
        "meta_mean_motion_ddot": 0,
        "tle_line1": "1 66994U 25292B   25358.24577507  .00005039  00000+0  36227-3 0  9993",
        "tle_line2": "2 66994  97.6509  70.6871 0014257 230.9883 129.0075 15.04625525  2127"
      },
      "geometry": {
        "type": "Point",
        "coordinates": [
          58.42940656349284,
          58.743602856498676
        ]
      }
    },
    {
      "type": "Feature",
      "properties": {
        "norad_id": 66995,
        "name": "2025-292C",
        "group": "last-30-days",
        "lat": 59.64959876473789,
        "lon": 57.9530464853325,
        "alt_km": 556.6922621098447,
        "timestamp": "2025-12-24T18:55:54.778611+00:00",
        "meta_object_name": "2025-292C",
        "meta_object_id": "2025-292C",
        "meta_epoch": "2025-12-24T05:53:40.904448",
        "meta_mean_motion": 15.0465654,
        "meta_eccentricity": 0.00145625,
        "meta_inclination": 97.65,
        "meta_ra_of_asc_node": 70.6858,
        "meta_arg_of_pericenter": 231.3832,
        "meta_mean_anomaly": 128.6091,
        "meta_ephemeris_type": 0,
        "meta_classification_type": "U",
        "meta_norad_cat_id": 66995,
        "meta_element_set_no": 999,
        "meta_rev_at_epoch": 212,
        "meta_bstar": 0.00040379165,
        "meta_mean_motion_dot": 5.629e-05,
        "meta_mean_motion_ddot": 0,
        "tle_line1": "1 66995U 25292C   25358.24561232  .00005629  00000+0  40379-3 0  9990",
        "tle_line2": "2 66995  97.6500  70.6858 0014562 231.3832 128.6091 15.04656540  2126"
      },
      "geometry": {
        "type": "Point",
        "coordinates": [
          57.9530464853325,
          59.64959876473789
        ]
      }
    },
    {
      "type": "Feature",
      "properties": {
        "norad_id": 66996,
        "name": "2025-292D",
        "group": "last-30-days",
        "lat": 61.526150780235284,
        "lon": 56.875935112138436,
        "alt_km": 555.8672773840281,
        "timestamp": "2025-12-24T18:55:54.778620+00:00",
        "meta_object_name": "2025-292D",
        "meta_object_id": "2025-292D",
        "meta_epoch": "2025-12-24T05:53:10.375008",
        "meta_mean_motion": 15.04670926,
        "meta_eccentricity": 0.00136875,
        "meta_inclination": 97.6495,
        "meta_ra_of_asc_node": 70.6854,
        "meta_arg_of_pericenter": 233.9135,
        "meta_mean_anomaly": 126.0824,
        "meta_ephemeris_type": 0,
        "meta_classification_type": "U",
        "meta_norad_cat_id": 66996,
        "meta_element_set_no": 999,
        "meta_rev_at_epoch": 212,
        "meta_bstar": 0.00028189027,
        "meta_mean_motion_dot": 3.911e-05,
        "meta_mean_motion_ddot": 0,
        "tle_line1": "1 66996U 25292D   25358.24525897  .00003911  00000+0  28189-3 0  9995",
        "tle_line2": "2 66996  97.6495  70.6854 0013687 233.9135 126.0824 15.04670926  2127"
      },
      "geometry": {
        "type": "Point",
        "coordinates": [
          56.875935112138436,
          61.526150780235284
        ]
      }
    }
  ]
}